XIWANG-5 02             
1 67069U 25296A   26010.91664536  .00009962  00000+0  56000-3 0  9990
2 67069  41.3522 295.7652 0001119   5.6681 354.4151 15.13252450  4387
DEAR-5                  
1 67070U 25296B   26010.93386130  .00005640  00000+0  28810-3 0  9992
2 67070  41.3570 295.0336 0020722 223.7050 136.2131 15.17049789  4385
RAISE-4                 
1 67073U 25297B   26010.90917159  .00005175  00000+0  34477-3 0  9993
2 67073  97.4862 162.6775 0012026 212.5802 147.4685 15.07462372  4181
ELECTRON KICK STAGE R/B 
1 67074U 25297C   26010.94322310  .00555421  10272-3  18649-2 0  9999
2 67074  97.4750 165.1087 0139163 162.1758 198.4461 15.76145244  4342
STARLINK-36230          
1 67075U 25298A   26010.91668981  .00075302  00000+0  17077-2 0  9998
2 67075  69.9995 168.4263 0003419 282.5521 177.2645 15.42685336  5668
STARLINK-36240          
1 67076U 25298B   26010.91668981  .00081921  00000+0  18557-2 0  9997
2 67076  69.9998 168.4011 0003364 281.1477 200.6567 15.42688551  5663
STARLINK-36243          
1 67077U 25298C   26010.91668981  .00060202  00000+0  13693-2 0  9993
2 67077  69.9993 168.4792 0003499 276.5661 137.2867 15.42669975  5664
STARLINK-36236          
1 67078U 25298D   26010.91668981  .00057758  00000+0  13142-2 0  9995
2 67078  69.9995 168.4525 0003421 273.9763 162.8707 15.42671094  5662
STARLINK-36159          
1 67079U 25298E   26010.75355950  .00034492  00000+0  78670-3 0  9995
2 67079  70.0001 169.1818 0003833 275.2862  84.7882 15.42740702  4320
STARLINK-36158          
1 67080U 25298F   26010.84613629  .00044441  00000+0  10113-2 0  9999
2 67080  70.0009 168.6945 0004199 283.4527  76.6187 15.42739242  4347
STARLINK-35864          
1 67081U 25298G   26010.85027835  .00051962  00000+0  11810-2 0  9990
2 67081  69.9985 168.7088 0003529 274.3203  85.7576 15.42735541  4344
STARLINK-36035          
1 67082U 25298H   26010.85424035  .00040255  00000+0  91679-3 0  9999
2 67082  70.0005 168.7242 0003260 271.5431  88.5378 15.42745483  4344
