CCSDS_OMM_VERS = 2.0
CREATION_DATE  = 
ORIGINATOR     = 

OBJECT_NAME    = XIWANG-5 02
OBJECT_ID      = 2025-296A
CENTER_NAME    = EARTH
REF_FRAME      = TEME
TIME_SYSTEM    = UTC
MEAN_ELEMENT_THEORY = SGP/SGP4

EPOCH          = 2026-01-10T21:59:58.159104
MEAN_MOTION    = 15.13252450
ECCENTRICITY   = .00011194
INCLINATION    = 41.3522
RA_OF_ASC_NODE = 295.7652
ARG_OF_PERICENTER = 5.6681
MEAN_ANOMALY   = 354.4151

EPHEMERIS_TYPE = 0
CLASSIFICATION_TYPE = U
NORAD_CAT_ID   = 67069
ELEMENT_SET_NO = 999
REV_AT_EPOCH   = 438
BSTAR          = .55999552E-3
MEAN_MOTION_DOT = .9962E-4
MEAN_MOTION_DDOT = 0

CCSDS_OMM_VERS = 2.0
CREATION_DATE  = 
ORIGINATOR     = 

OBJECT_NAME    = DEAR-5
OBJECT_ID      = 2025-296B
CENTER_NAME    = EARTH
REF_FRAME      = TEME
TIME_SYSTEM    = UTC
MEAN_ELEMENT_THEORY = SGP/SGP4

EPOCH          = 2026-01-10T22:24:45.616320
MEAN_MOTION    = 15.17049789
ECCENTRICITY   = .0020722
INCLINATION    = 41.3570
RA_OF_ASC_NODE = 295.0336
ARG_OF_PERICENTER = 223.7050
MEAN_ANOMALY   = 136.2131

EPHEMERIS_TYPE = 0
CLASSIFICATION_TYPE = U
NORAD_CAT_ID   = 67070
ELEMENT_SET_NO = 999
REV_AT_EPOCH   = 438
BSTAR          = .28809787E-3
MEAN_MOTION_DOT = .564E-4
MEAN_MOTION_DDOT = 0

CCSDS_OMM_VERS = 2.0
CREATION_DATE  = 
ORIGINATOR     = 

OBJECT_NAME    = RAISE-4
OBJECT_ID      = 2025-297B
CENTER_NAME    = EARTH
REF_FRAME      = TEME
TIME_SYSTEM    = UTC
MEAN_ELEMENT_THEORY = SGP/SGP4

EPOCH          = 2026-01-10T21:49:12.425376
MEAN_MOTION    = 15.07462372
ECCENTRICITY   = .00120261
INCLINATION    = 97.4862
RA_OF_ASC_NODE = 162.6775
ARG_OF_PERICENTER = 212.5802
MEAN_ANOMALY   = 147.4685

EPHEMERIS_TYPE = 0
CLASSIFICATION_TYPE = U
NORAD_CAT_ID   = 67073
ELEMENT_SET_NO = 999
REV_AT_EPOCH   = 418
BSTAR          = .34477247E-3
MEAN_MOTION_DOT = .5175E-4
MEAN_MOTION_DDOT = 0

CCSDS_OMM_VERS = 2.0
CREATION_DATE  = 
ORIGINATOR     = 

OBJECT_NAME    = ELECTRON KICK STAGE R/B
OBJECT_ID      = 2025-297C
CENTER_NAME    = EARTH
REF_FRAME      = TEME
TIME_SYSTEM    = UTC
MEAN_ELEMENT_THEORY = SGP/SGP4

EPOCH          = 2026-01-10T22:38:14.475840
MEAN_MOTION    = 15.76145244
ECCENTRICITY   = .01391637
INCLINATION    = 97.4750
RA_OF_ASC_NODE = 165.1087
ARG_OF_PERICENTER = 162.1758
MEAN_ANOMALY   = 198.4461

EPHEMERIS_TYPE = 0
CLASSIFICATION_TYPE = U
NORAD_CAT_ID   = 67074
ELEMENT_SET_NO = 999
REV_AT_EPOCH   = 434
BSTAR          = .18648845E-2
MEAN_MOTION_DOT = .555421E-2
MEAN_MOTION_DDOT = .1027239E-3

CCSDS_OMM_VERS = 2.0
CREATION_DATE  = 
ORIGINATOR     = 

OBJECT_NAME    = STARLINK-36230
OBJECT_ID      = 2025-298A
CENTER_NAME    = EARTH
REF_FRAME      = TEME
TIME_SYSTEM    = UTC
MEAN_ELEMENT_THEORY = SGP/SGP4

EPOCH          = 2026-01-10T22:00:01.999584
MEAN_MOTION    = 15.42685336
ECCENTRICITY   = .00034198
INCLINATION    = 69.9995
RA_OF_ASC_NODE = 168.4263
ARG_OF_PERICENTER = 282.5521
MEAN_ANOMALY   = 177.2645

EPHEMERIS_TYPE = 0
CLASSIFICATION_TYPE = U
NORAD_CAT_ID   = 67075
ELEMENT_SET_NO = 999
REV_AT_EPOCH   = 566
BSTAR          = .17076962E-2
MEAN_MOTION_DOT = .75302E-3
MEAN_MOTION_DDOT = 0

CCSDS_OMM_VERS = 2.0
CREATION_DATE  = 
ORIGINATOR     = 

OBJECT_NAME    = STARLINK-36240
OBJECT_ID      = 2025-298B
CENTER_NAME    = EARTH
REF_FRAME      = TEME
TIME_SYSTEM    = UTC
MEAN_ELEMENT_THEORY = SGP/SGP4

EPOCH          = 2026-01-10T22:00:01.999584
MEAN_MOTION    = 15.42688551
ECCENTRICITY   = .00033644
INCLINATION    = 69.9998
RA_OF_ASC_NODE = 168.4011
ARG_OF_PERICENTER = 281.1477
MEAN_ANOMALY   = 200.6567

EPHEMERIS_TYPE = 0
CLASSIFICATION_TYPE = U
NORAD_CAT_ID   = 67076
ELEMENT_SET_NO = 999
REV_AT_EPOCH   = 566
BSTAR          = .18557308E-2
MEAN_MOTION_DOT = .81921E-3
MEAN_MOTION_DDOT = 0

CCSDS_OMM_VERS = 2.0
CREATION_DATE  = 
ORIGINATOR     = 

OBJECT_NAME    = STARLINK-36243
OBJECT_ID      = 2025-298C
CENTER_NAME    = EARTH
REF_FRAME      = TEME
TIME_SYSTEM    = UTC
MEAN_ELEMENT_THEORY = SGP/SGP4

EPOCH          = 2026-01-10T22:00:01.999584
MEAN_MOTION    = 15.42669975
ECCENTRICITY   = .00034995
INCLINATION    = 69.9993
RA_OF_ASC_NODE = 168.4792
ARG_OF_PERICENTER = 276.5661
MEAN_ANOMALY   = 137.2867

EPHEMERIS_TYPE = 0
CLASSIFICATION_TYPE = U
NORAD_CAT_ID   = 67077
ELEMENT_SET_NO = 999
REV_AT_EPOCH   = 566
BSTAR          = .13693095E-2
MEAN_MOTION_DOT = .60202E-3
MEAN_MOTION_DDOT = 0

CCSDS_OMM_VERS = 2.0
CREATION_DATE  = 
ORIGINATOR     = 

OBJECT_NAME    = STARLINK-36236
OBJECT_ID      = 2025-298D
CENTER_NAME    = EARTH
REF_FRAME      = TEME
TIME_SYSTEM    = UTC
MEAN_ELEMENT_THEORY = SGP/SGP4

EPOCH          = 2026-01-10T22:00:01.999584
MEAN_MOTION    = 15.42671094
ECCENTRICITY   = .00034217
INCLINATION    = 69.9995
RA_OF_ASC_NODE = 168.4525
ARG_OF_PERICENTER = 273.9763
MEAN_ANOMALY   = 162.8707

EPHEMERIS_TYPE = 0
CLASSIFICATION_TYPE = U
NORAD_CAT_ID   = 67078
ELEMENT_SET_NO = 999
REV_AT_EPOCH   = 566
BSTAR          = .13142283E-2
MEAN_MOTION_DOT = .57758E-3
MEAN_MOTION_DDOT = 0

CCSDS_OMM_VERS = 2.0
CREATION_DATE  = 
ORIGINATOR     = 

OBJECT_NAME    = STARLINK-36159
OBJECT_ID      = 2025-298E
CENTER_NAME    = EARTH
REF_FRAME      = TEME
TIME_SYSTEM    = UTC
MEAN_ELEMENT_THEORY = SGP/SGP4

EPOCH          = 2026-01-10T18:05:07.540800
MEAN_MOTION    = 15.42740702
ECCENTRICITY   = .00038331
INCLINATION    = 70.0001
RA_OF_ASC_NODE = 169.1818
ARG_OF_PERICENTER = 275.2862
MEAN_ANOMALY   = 84.7882

EPHEMERIS_TYPE = 0
CLASSIFICATION_TYPE = U
NORAD_CAT_ID   = 67079
ELEMENT_SET_NO = 999
REV_AT_EPOCH   = 432
BSTAR          = .78669778E-3
MEAN_MOTION_DOT = .34492E-3
MEAN_MOTION_DDOT = 0

CCSDS_OMM_VERS = 2.0
CREATION_DATE  = 
ORIGINATOR     = 

OBJECT_NAME    = STARLINK-36158
OBJECT_ID      = 2025-298F
CENTER_NAME    = EARTH
REF_FRAME      = TEME
TIME_SYSTEM    = UTC
MEAN_ELEMENT_THEORY = SGP/SGP4

EPOCH          = 2026-01-10T20:18:26.175456
MEAN_MOTION    = 15.42739242
ECCENTRICITY   = .00041997
INCLINATION    = 70.0009
RA_OF_ASC_NODE = 168.6945
ARG_OF_PERICENTER = 283.4527
MEAN_ANOMALY   = 76.6187

EPHEMERIS_TYPE = 0
CLASSIFICATION_TYPE = U
NORAD_CAT_ID   = 67080
ELEMENT_SET_NO = 999
REV_AT_EPOCH   = 434
BSTAR          = .10113405E-2
MEAN_MOTION_DOT = .44441E-3
MEAN_MOTION_DDOT = 0

CCSDS_OMM_VERS = 2.0
CREATION_DATE  = 
ORIGINATOR     = 

OBJECT_NAME    = STARLINK-35864
OBJECT_ID      = 2025-298G
CENTER_NAME    = EARTH
REF_FRAME      = TEME
TIME_SYSTEM    = UTC
MEAN_ELEMENT_THEORY = SGP/SGP4

EPOCH          = 2026-01-10T20:24:24.049440
MEAN_MOTION    = 15.42735541
ECCENTRICITY   = .00035293
INCLINATION    = 69.9985
RA_OF_ASC_NODE = 168.7088
ARG_OF_PERICENTER = 274.3203
MEAN_ANOMALY   = 85.7576

EPHEMERIS_TYPE = 0
CLASSIFICATION_TYPE = U
NORAD_CAT_ID   = 67081
ELEMENT_SET_NO = 999
REV_AT_EPOCH   = 434
BSTAR          = .1181014E-2
MEAN_MOTION_DOT = .51962E-3
MEAN_MOTION_DDOT = 0

CCSDS_OMM_VERS = 2.0
CREATION_DATE  = 
ORIGINATOR     = 

OBJECT_NAME    = STARLINK-36035
OBJECT_ID      = 2025-298H
CENTER_NAME    = EARTH
REF_FRAME      = TEME
TIME_SYSTEM    = UTC
MEAN_ELEMENT_THEORY = SGP/SGP4

EPOCH          = 2026-01-10T20:30:06.366240
MEAN_MOTION    = 15.42745483
ECCENTRICITY   = .00032606
INCLINATION    = 70.0005
RA_OF_ASC_NODE = 168.7242
ARG_OF_PERICENTER = 271.5431
MEAN_ANOMALY   = 88.5378

EPHEMERIS_TYPE = 0
CLASSIFICATION_TYPE = U
NORAD_CAT_ID   = 67082
ELEMENT_SET_NO = 999
REV_AT_EPOCH   = 434
BSTAR          = .91679425E-3
MEAN_MOTION_DOT = .40255E-3
MEAN_MOTION_DDOT = 0

